     2.11           N: GPS NAV DATA                         RINEX VERSION / TYPE
teqc  2018Dec12     gpsops              20220620 01:04:08UTCPGM / RUN BY / DATE
Linux 2.6.32-573.12.1.x86_64|x86_64|gcc -static|Linux 64|=+ COMMENT
CHPI                                    MARKER NAME         COMMENT
41609M003                               MARKER NUMBER       COMMENT
4164613.9484 -4162456.9866 -2445028.7316                    COMMENT
This data is provided as a public service by NASA/JPL.      COMMENT
No warranty is expressed or implied regarding suitability   COMMENT
for use.  For further information, contact:                 COMMENT
ggnops at jpl dot nasa dot gov                              COMMENT
                                                            END OF HEADER
22 22  6 19  5 59 44.0 2.782195806503D-04 6.366462912410D-12 0.000000000000D+00
    6.000000000000D+01-6.471875000000D+01 4.368753404687D-09-1.969822849566D+00
   -3.192573785782D-06 1.341961591970D-02 1.078657805920D-05 5.153711036682D+03
    2.158400000000D+04 2.197921276093D-07-1.999144614020D+00 7.450580596924D-08
    9.612865522548D-01 1.655937500000D+02-1.847956906434D+00-7.688891701773D-09
    3.814444601214D-10 1.000000000000D+00 2.215000000000D+03 0.000000000000D+00
    2.000000000000D+00 0.000000000000D+00-8.381903171539D-09 6.000000000000D+01
    1.867200000000D+04 4.000000000000D+00
 8 22  6 19  6  0  0.0-7.275817915797D-05-1.591615728103D-12 0.000000000000D+00
    3.100000000000D+01 4.971875000000D+01 4.157316026042D-09-1.863285951625D+00
    2.644956111908D-06 7.444493472576D-03 9.745359420776D-06 5.153780809402D+03
    2.160000000000D+04-9.126961231232D-08 1.037811656541D+00-4.656612873077D-08
    9.632656185538D-01 1.945625000000D+02 1.727565562783D-01-7.827826060376D-09
   -1.839362331110D-10 1.000000000000D+00 2.215000000000D+03 0.000000000000D+00
    2.000000000000D+00 0.000000000000D+00 5.122274160385D-09 3.100000000000D+01
    2.124600000000D+04 4.000000000000D+00
10 22  6 19  8  0  0.0-4.606493748724D-04-1.466560206609D-11 0.000000000000D+00
    4.800000000000D+01-8.690625000000D+01 4.284821337150D-09 1.290198654776D+00
   -4.531815648079D-06 7.659173570573D-03 4.615634679794D-06 5.153684219360D+03
    2.880000000000D+04-1.285225152969D-07-3.131474768368D+00 7.636845111847D-08
    9.743142561453D-01 2.975312500000D+02-2.499997984185D+00-8.237485981498D-09
   -1.546492989069D-10 1.000000000000D+00 2.215000000000D+03 0.000000000000D+00
    2.000000000000D+00 0.000000000000D+00 2.328306436539D-09 4.800000000000D+01
    2.161800000000D+04 4.000000000000D+00
23 22  6 19  8  0  0.0-2.880627289414D-05-2.046363078989D-12 0.000000000000D+00
    1.520000000000D+02-8.518750000000D+01 4.360181619066D-09 2.566049755118D+00
   -4.339963197708D-06 2.267000381835D-03 4.148110747337D-06 5.153715221405D+03
    2.880000000000D+04-8.940696716309D-08 3.126235897805D+00 3.911554813385D-08
    9.693968135541D-01 2.995937500000D+02 2.996364802575D+00-8.217842306118D-09
   -4.250177036933D-11 1.000000000000D+00 2.215000000000D+03 0.000000000000D+00
    2.000000000000D+00 0.000000000000D+00-8.381903171539D-09 4.080000000000D+02
    2.161800000000D+04 4.000000000000D+00
32 22  6 19  8  0  0.0-1.549064181745D-04-9.436007530894D-12 0.000000000000D+00
    3.600000000000D+01-6.609375000000D+01 4.484829668300D-09-7.883528892622D-02
   -3.430992364883D-06 6.024874979630D-03 1.129694283009D-05 5.153617147446D+03
    2.880000000000D+04-1.862645149231D-09-2.089814948244D+00 1.098960638046D-07
    9.581248073898D-01 1.638125000000D+02-2.280902189897D+00-8.017833974968D-09
    2.671539851787D-10 1.000000000000D+00 2.215000000000D+03 0.000000000000D+00
    2.000000000000D+00 0.000000000000D+00 4.656612873077D-10 3.600000000000D+01
    2.161800000000D+04 4.000000000000D+00
27 22  6 19  8  0  0.0 2.166554331779D-04 2.955857780762D-12 0.000000000000D+00
    3.300000000000D+01 5.887500000000D+01 4.114457097939D-09-7.529390189781D-01
    2.969056367874D-06 1.053080265410D-02 1.019053161144D-05 5.153660921097D+03
    2.880000000000D+04 1.322478055954D-07 1.058210504315D+00 1.601874828339D-07
    9.720038315868D-01 1.886250000000D+02 6.879772595286D-01-7.951402636407D-09
   -4.118028675281D-10 1.000000000000D+00 2.215000000000D+03 0.000000000000D+00
    2.000000000000D+00 0.000000000000D+00 1.862645149231D-09 3.300000000000D+01
    2.161800000000D+04 4.000000000000D+00
16 22  6 19  8  0  0.0-5.099861882627D-04-2.614797267597D-12 0.000000000000D+00
    5.000000000000D+01 5.343750000000D+00 4.728768400756D-09 1.806663114885D-01
    4.619359970093D-07 1.271141867619D-02 7.266178727150D-06 5.153660440445D+03
    2.880000000000D+04 1.490116119385D-08 1.021395797806D-01 1.545995473862D-07
    9.691464175698D-01 2.412187500000D+02 7.299656109349D-01-8.260344076487D-09
   -5.450227023832D-10 1.000000000000D+00 2.215000000000D+03 0.000000000000D+00
    2.800000000000D+00 0.000000000000D+00-1.024454832077D-08 5.000000000000D+01
    2.161800000000D+04 4.000000000000D+00
18 22  6 19  8  0  0.0 1.379144378006D-04-1.091393642128D-11 0.000000000000D+00
    1.320000000000D+02 6.468750000000D+01 4.243033882249D-09-2.609945786810D+00
    3.376975655556D-06 2.428991952911D-03 4.181638360023D-06 5.153732055664D+03
    2.880000000000D+04 6.519258022308D-08 2.126798806118D+00-1.862645149231D-09
    9.716961316385D-01 3.058437500000D+02 3.002980097649D+00-8.169626012001D-09
    2.364384200378D-10 1.000000000000D+00 2.215000000000D+03 0.000000000000D+00
    2.000000000000D+00 0.000000000000D+00-8.381903171539D-09 1.320000000000D+02
    2.161800000000D+04 4.000000000000D+00
26 22  6 19  8  0  0.0 2.132584340870D-04 2.387423592154D-12 0.000000000000D+00
    7.900000000000D+01 3.812500000000D+00 5.520587097469D-09 1.049183158690D+00
    4.637986421585D-07 6.960931001231D-03 6.575137376785D-06 5.153760450363D+03
    2.880000000000D+04 4.842877388000D-08-4.384591504407D-02 8.195638656616D-08
    9.375499925147D-01 2.380937500000D+02 3.881572199177D-01-8.565356781491D-09
   -4.968064082668D-10 1.000000000000D+00 2.215000000000D+03 0.000000000000D+00
    2.800000000000D+00 0.000000000000D+00 6.984919309616D-09 7.900000000000D+01
    2.161800000000D+04 4.000000000000D+00
22 22  6 19  8  0  0.0 2.782652154565D-04 6.366462912410D-12 0.000000000000D+00
    6.100000000000D+01-5.671875000000D+01 4.491258507516D-09-9.174217187542D-01
   -2.682209014893D-06 1.341983594466D-02 1.162663102150D-05 5.153708801270D+03
    2.880000000000D+04-1.173466444016D-07-1.999201013901D+00 2.589076757431D-07
    9.612873978215D-01 1.593437500000D+02-1.847865975835D+00-8.070336161895D-09
    3.317995350682D-10 1.000000000000D+00 2.215000000000D+03 0.000000000000D+00
    2.000000000000D+00 0.000000000000D+00-8.381903171539D-09 6.100000000000D+01
    2.161800000000D+04 4.000000000000D+00
29 22  6 19  8  0  0.0-5.254959687591D-04-3.637978807092D-12 0.000000000000D+00
    1.100000000000D+01 6.631250000000D+01 3.881233097509D-09-6.967086304938D-01
    3.393739461899D-06 2.228111843579D-03 9.456649422646D-06 5.153690721512D+03
    2.880000000000D+04-3.911554813385D-08 1.134841752086D+00-1.862645149231D-08
    9.805474999221D-01 2.085312500000D+02 2.311499681823D+00-7.719607266914D-09
   -2.439387324559D-10 1.000000000000D+00 2.215000000000D+03 0.000000000000D+00
    2.000000000000D+00 0.000000000000D+00-1.024454832077D-08 1.100000000000D+01
    2.161800000000D+04 4.000000000000D+00
 8 22  6 19  8  0  0.0-7.276935502887D-05-1.591615728103D-12 0.000000000000D+00
    3.400000000000D+01 4.915625000000D+01 4.218747156324D-09-8.130657888251D-01
    2.522021532059D-06 7.444354589097D-03 1.014769077301D-05 5.153782226562D+03
    2.880000000000D+04 1.527369022369D-07 1.037756093450D+00-1.303851604462D-07
    9.632632954398D-01 1.874687500000D+02 1.726478980379D-01-7.933901907432D-09
   -3.821587755898D-10 1.000000000000D+00 2.215000000000D+03 0.000000000000D+00
    2.000000000000D+00 0.000000000000D+00 5.122274160385D-09 3.400000000000D+01
    2.161800000000D+04 4.000000000000D+00
15 22  6 19  8  0  0.0-5.206791684031D-05 2.955857780762D-12 0.000000000000D+00
    9.800000000000D+01-5.896875000000D+01 5.046638784191D-09-1.749019091106D+00
   -3.077089786530D-06 1.412983157206D-02 9.458512067795D-06 5.153573041916D+03
    2.880000000000D+04 2.905726432800D-07-2.210883188479D+00-1.117587089539D-08
    9.303686183645D-01 1.703750000000D+02 1.095842800628D+00-8.076050685642D-09
    2.657253542419D-10 1.000000000000D+00 2.215000000000D+03 0.000000000000D+00
    2.800000000000D+00 0.000000000000D+00-1.071020960808D-08 9.800000000000D+01
    2.161800000000D+04 4.000000000000D+00
15 22  6 19  7 59 44.0-5.206745117903D-05 3.069544618484D-12 0.000000000000D+00
    0.000000000000D+00-5.896875000000D+01 5.046638784191D-09-1.751352787765D+00
   -3.077089786530D-06 1.412983320188D-02 9.458512067795D-06 5.153573034286D+03
    2.878400000000D+04 2.905726432800D-07-2.210883086075D+00-1.117587089539D-08
    9.303686095870D-01 1.703750000000D+02 1.095842676280D+00-8.076050685642D-09
    2.657253542419D-10 1.000000000000D+00 2.215000000000D+03 0.000000000000D+00
    2.000000000000D+00 0.000000000000D+00-1.071020960808D-08 0.000000000000D+00
    2.223600000000D+04 4.000000000000D+00
26 22  6 19  7 59 44.0 2.132579684258D-04 2.387423592154D-12 0.000000000000D+00
    2.000000000000D+00 3.812500000000D+00 5.520587097469D-09 1.046850527035D+00
    4.637986421585D-07 6.960940896533D-03 6.575137376785D-06 5.153760454178D+03
    2.878400000000D+04 4.842877388000D-08-4.384580093646D-02 8.195638656616D-08
    9.375499910518D-01 2.380937500000D+02 3.881562075784D-01-8.565356781491D-09
   -4.968064082668D-10 1.000000000000D+00 2.215000000000D+03 0.000000000000D+00
    2.000000000000D+00 0.000000000000D+00 6.984919309616D-09 2.000000000000D+00
    2.239800000000D+04 4.000000000000D+00
